{
"type": "FeatureCollection",
"name": "limite_df",
"crs": { "type": "name", "properties": { "name": "urn:ogc:def:crs:OGC:1.3:CRS84" } },
"features": [
{ "type": "Feature", "properties": { }, "geometry": { "type": "MultiLineString", "coordinates": [ [ [ -47.418406916959512, -15.501819938413869 ], [ -47.418406917006457, -15.545657100030162 ], [ -47.417786649629271, -15.546259041146506 ], [ -47.417199020167679, -15.546588803357078 ], [ -47.41582388135874, -15.546534321394141 ], [ -47.414103702124713, -15.548537013062036 ], [ -47.412476005550715, -15.547522264239037 ], [ -47.41117394390573, -15.547261882759214 ], [ -47.409510660772291, -15.548312652302837 ], [ -47.408326576433943, -15.548181053198938 ], [ -47.407350059384299, -15.547226899275257 ], [ -47.406283420400023, -15.546936815025816 ], [ -47.404843750813477, -15.546943495276992 ], [ -47.402520605194738, -15.547828866918032 ], [ -47.40249320189379, -15.549322478952099 ], [ -47.402142458634714, -15.550336298938893 ], [ -47.400662020226868, -15.551571116120128 ], [ -47.399881439105471, -15.551360094393203 ], [ -47.399473048555095, -15.550617432877194 ], [ -47.399044742046655, -15.551453221579296 ], [ -47.398616563118487, -15.553265582657106 ], [ -47.398919141664294, -15.553642619163403 ], [ -47.398748549258691, -15.554200969278446 ], [ -47.399181339717067, -15.554797015598062 ], [ -47.399090965688728, -15.555763731987826 ], [ -47.399734642446866, -15.556221969356939 ], [ -47.399466975626801, -15.557249337863812 ], [ -47.397178201127254, -15.557815396259976 ], [ -47.396137242328216, -15.558620810616974 ], [ -47.395337702935805, -15.557981770884915 ], [ -47.394183152987097, -15.558072017215814 ], [ -47.3938824180727, -15.55849898081509 ], [ -47.394118243408542, -15.559308573613363 ], [ -47.393603837132993, -15.560196786972639 ], [ -47.393953138040516, -15.560987079149296 ], [ -47.393503577439574, -15.56103623182819 ], [ -47.393222416419974, -15.561463885799222 ], [ -47.393189196878552, -15.56221768260979 ], [ -47.392071419205394, -15.562830590919038 ], [ -47.391445691358811, -15.562635929334483 ], [ -47.391102962124116, -15.563945970329506 ], [ -47.391316432264254, -15.564434198306257 ], [ -47.390933102158236, -15.564328146106337 ], [ -47.390774719316525, -15.564977605151013 ], [ -47.390328919547812, -15.564949923650147 ], [ -47.389948946043617, -15.566344383708394 ], [ -47.390113070444741, -15.566836763055989 ], [ -47.389765777658418, -15.567188343452937 ], [ -47.38872068892784, -15.567561950631594 ], [ -47.38555041069538, -15.566700153763088 ], [ -47.385400093799561, -15.566434375698631 ], [ -47.384986260730351, -15.566512035338285 ], [ -47.384589359412217, -15.56757331889783 ], [ -47.383647740040423, -15.567060445617919 ], [ -47.38214415345054, -15.566952955229665 ], [ -47.3816646392739, -15.566587747311196 ], [ -47.38061789325377, -15.566899903841316 ], [ -47.380385016206297, -15.569258508427261 ], [ -47.379901108595256, -15.568916833056361 ], [ -47.379330949225107, -15.56917866110715 ], [ -47.37969163378289, -15.570313054819584 ], [ -47.379268333581692, -15.573618682264698 ], [ -47.378849452998885, -15.574231203879888 ], [ -47.3781739446028, -15.574329750018244 ], [ -47.378277896790721, -15.575426266923939 ], [ -47.377981051696985, -15.575872146084802 ], [ -47.376516670867041, -15.576667609646039 ], [ -47.374920428670087, -15.577344335225019 ], [ -47.373361784731138, -15.577562616031072 ], [ -47.372517319639734, -15.577315155978299 ], [ -47.371993571212116, -15.577969453150049 ], [ -47.371210664452491, -15.577725841370727 ], [ -47.37061115420196, -15.578276156106261 ], [ -47.369946186109196, -15.578157747097102 ], [ -47.369371987539203, -15.578965259166861 ], [ -47.368302664803053, -15.579266769392932 ], [ -47.367369815768484, -15.579196407367622 ], [ -47.365841420881843, -15.578070030850643 ], [ -47.365171955103307, -15.578210031345833 ], [ -47.365288917301264, -15.578494253078734 ], [ -47.364922503332451, -15.57856504513788 ], [ -47.364176838999335, -15.577666030661307 ], [ -47.364090101686841, -15.578312905140301 ], [ -47.363611764070441, -15.577969325755983 ], [ -47.362102991315147, -15.577905127552894 ], [ -47.361556304078753, -15.578431364725429 ], [ -47.361451133624627, -15.579178716146028 ], [ -47.361888657075511, -15.579702518037344 ], [ -47.361491609134923, -15.579784474695836 ], [ -47.361360707962447, -15.580237588267684 ], [ -47.359481031010432, -15.579608201857178 ], [ -47.359300479558662, -15.580366299397767 ], [ -47.358870024783407, -15.580216431088287 ], [ -47.357819912893852, -15.580488777626838 ], [ -47.357317700275196, -15.580339676268666 ], [ -47.356954290789318, -15.579694011932309 ], [ -47.356137388964314, -15.579820207953066 ], [ -47.35505300258562, -15.579129862887251 ], [ -47.354412418031032, -15.579760984260593 ], [ -47.353388824186446, -15.579415989077868 ], [ -47.351597095979059, -15.580452404016874 ], [ -47.350296325136696, -15.580403970998601 ], [ -47.349709231972348, -15.580740895644826 ], [ -47.349280832083842, -15.579705630930448 ], [ -47.34718810125279, -15.579353953970475 ], [ -47.34367528756016, -15.581664430170335 ], [ -47.341882600366247, -15.583362997120657 ], [ -47.340207676341613, -15.583862589620411 ], [ -47.337906160359559, -15.585404594273861 ], [ -47.336660924205226, -15.585572316274062 ], [ -47.334538025729948, -15.587752258300599 ], [ -47.333591036835436, -15.587424426953095 ], [ -47.331949359052317, -15.587567421727123 ], [ -47.330677736083544, -15.586472392153745 ], [ -47.329805474260837, -15.586405746971932 ], [ -47.328707138600599, -15.587617142830638 ], [ -47.328480596066647, -15.58852297730823 ], [ -47.327493089991343, -15.589727773891047 ], [ -47.327182053351905, -15.589505208407912 ], [ -47.327320373766497, -15.589124301378112 ], [ -47.326328204983, -15.589254054614589 ], [ -47.326487204796315, -15.588888288381442 ], [ -47.326125896590263, -15.58875388522481 ], [ -47.325115237673245, -15.589062710272406 ], [ -47.325011723872905, -15.588561493709499 ], [ -47.324660330201262, -15.589307833563019 ], [ -47.324206904245045, -15.588607947619371 ], [ -47.324777263916125, -15.588020103667469 ], [ -47.324171673194193, -15.587879246343153 ], [ -47.323960678738317, -15.587352061939109 ], [ -47.323507989811212, -15.587545665117124 ], [ -47.323013920163994, -15.586877823562626 ], [ -47.323441103761141, -15.586488445562658 ], [ -47.322610191594904, -15.586783615013998 ], [ -47.321720213228765, -15.586467776238198 ], [ -47.321266760548184, -15.587008301613498 ], [ -47.320840740290876, -15.586589086030298 ], [ -47.31993314294251, -15.587941175194969 ], [ -47.318215963986361, -15.588916932919588 ], [ -47.317000232176134, -15.590722175645377 ], [ -47.317186364931352, -15.591360753418867 ], [ -47.316621516571118, -15.59244270515576 ], [ -47.317119965669285, -15.592504304805093 ], [ -47.316790938388891, -15.593502461627242 ], [ -47.317227370322826, -15.593602659712891 ], [ -47.315564279667491, -15.594918431847146 ], [ -47.31570407576789, -15.595248521932799 ], [ -47.316415014865541, -15.595306078196652 ], [ -47.31575817795401, -15.596830781382483 ], [ -47.315974838830698, -15.597115791609175 ], [ -47.317935004588129, -15.597185468893269 ], [ -47.31794026286272, -15.597902744712117 ], [ -47.318642802653102, -15.597377662291882 ], [ -47.319133542927482, -15.597830527121502 ], [ -47.320031287283804, -15.597588867269319 ], [ -47.320250901394388, -15.598218954810688 ], [ -47.321461463531968, -15.598191714618046 ], [ -47.321675113559358, -15.598788436876523 ], [ -47.322154329603521, -15.598547576255523 ], [ -47.321999564563683, -15.598130919427719 ], [ -47.322239137706092, -15.598048885356208 ], [ -47.322508822144627, -15.599648733328223 ], [ -47.323205527903326, -15.600593590398178 ], [ -47.322973243054648, -15.601074866879701 ], [ -47.323517763939165, -15.601004062331162 ], [ -47.322908026841944, -15.601740486130911 ], [ -47.323149923324102, -15.602361299852872 ], [ -47.322739184690754, -15.603303410026548 ], [ -47.322988220828364, -15.603813024853727 ], [ -47.323606247265815, -15.603895025636257 ], [ -47.323387440850411, -15.604497222189506 ], [ -47.323042856420891, -15.604443046058782 ], [ -47.323513636365853, -15.604942183751444 ], [ -47.323354441020037, -15.605540136044722 ], [ -47.323922949789953, -15.605611817842453 ], [ -47.323889634555748, -15.606171396750989 ], [ -47.324299961442058, -15.606144468940018 ], [ -47.324822069628958, -15.607144466908213 ], [ -47.325306660626921, -15.60729653489348 ], [ -47.325306254616621, -15.608004832378811 ], [ -47.324762037973763, -15.608186762638706 ], [ -47.325145605807442, -15.609134922839356 ], [ -47.325634509858681, -15.609338440350365 ], [ -47.32516684823387, -15.609778848238195 ], [ -47.325214647882092, -15.610132487738538 ], [ -47.325786669768114, -15.610597118905964 ], [ -47.326299160174045, -15.610411906936944 ], [ -47.326356080140663, -15.610747382447236 ], [ -47.325854992582016, -15.611199889831271 ], [ -47.326512015663894, -15.611100779053611 ], [ -47.32696738253501, -15.611636206688544 ], [ -47.326868395208578, -15.612033864088609 ], [ -47.3273471438741, -15.612080286304895 ], [ -47.327517314696706, -15.612951197967343 ], [ -47.328022470040175, -15.612859112615595 ], [ -47.328335410029538, -15.613329192726402 ], [ -47.327785610614889, -15.613512999735375 ], [ -47.328094395921418, -15.614110508824957 ], [ -47.327918142868157, -15.615013101270813 ], [ -47.328220767217765, -15.615807622113458 ], [ -47.328797847715549, -15.615397667199336 ], [ -47.328828133406972, -15.616180621850244 ], [ -47.329090483779623, -15.61629799362124 ], [ -47.328305721413372, -15.617881905637349 ], [ -47.328424284621775, -15.618144451376455 ], [ -47.329105392414945, -15.618195044121551 ], [ -47.328344730770624, -15.619437203575135 ], [ -47.328991742356294, -15.619770028937754 ], [ -47.329201055567459, -15.620225848290813 ], [ -47.329978673146499, -15.620236564712 ], [ -47.329822788679159, -15.620878753031631 ], [ -47.330368438827911, -15.620903676775521 ], [ -47.330928402547826, -15.622523905104265 ], [ -47.330123479454926, -15.623149498165789 ], [ -47.330054665201516, -15.623741975950285 ], [ -47.330651776104062, -15.624442117172926 ], [ -47.331683094392623, -15.62792201356239 ], [ -47.332409139666282, -15.628068781796426 ], [ -47.332375805769765, -15.62874761213677 ], [ -47.333215957792895, -15.629008803453502 ], [ -47.333219771626041, -15.629592377649745 ], [ -47.333714664901478, -15.629661193582482 ], [ -47.333125101100741, -15.631111145692824 ], [ -47.33369407795837, -15.631546868621495 ], [ -47.332931999882021, -15.631325655174248 ], [ -47.333185350835379, -15.632479200073709 ], [ -47.332925887098781, -15.633112553338277 ], [ -47.331975522009216, -15.634316994549208 ], [ -47.33172426342702, -15.635345962828875 ], [ -47.331196072658933, -15.635219678701775 ], [ -47.330908797699379, -15.635867782089914 ], [ -47.330990546174235, -15.636418004869283 ], [ -47.331453215109121, -15.636685922365782 ], [ -47.331406135707319, -15.63713904018201 ], [ -47.330863016452476, -15.637588398971449 ], [ -47.331190711640822, -15.638451303576518 ], [ -47.330775533090716, -15.638672541670072 ], [ -47.330682503321285, -15.639349295618713 ], [ -47.329802805045816, -15.63929715227432 ], [ -47.329938863558525, -15.639875770309809 ], [ -47.329450807223921, -15.639918901284611 ], [ -47.329903486904115, -15.640539264366224 ], [ -47.329441710082683, -15.641256978946883 ], [ -47.329333635118495, -15.642499440702723 ], [ -47.329768870079334, -15.64289593763046 ], [ -47.329314122306769, -15.643328997023454 ], [ -47.329542020533729, -15.643776482846009 ], [ -47.329305697047779, -15.644479153365161 ], [ -47.329676440214392, -15.644778765162719 ], [ -47.329137748569643, -15.644962467454215 ], [ -47.329054064291029, -15.646300433329383 ], [ -47.328070822136105, -15.646665930213599 ], [ -47.327896748459672, -15.647349869212871 ], [ -47.327215506561366, -15.64746100013592 ], [ -47.327419175668489, -15.648403826240903 ], [ -47.326960523731906, -15.648987796845683 ], [ -47.327140739613164, -15.649340931226551 ], [ -47.328008243232766, -15.649375080414135 ], [ -47.328493927897512, -15.649696960959369 ], [ -47.327695462287068, -15.650160774816554 ], [ -47.327881165461342, -15.650751451663593 ], [ -47.328547031925737, -15.650434499180035 ], [ -47.329011237213571, -15.650835204663233 ], [ -47.328586357978338, -15.651684428373626 ], [ -47.328101306079517, -15.651666094787947 ], [ -47.327879965759038, -15.652128292997267 ], [ -47.327252939123852, -15.652087977224864 ], [ -47.326890663340812, -15.652372792191205 ], [ -47.327228060733255, -15.65475065218572 ], [ -47.328382127155407, -15.654892872641561 ], [ -47.328826598737137, -15.656102357403427 ], [ -47.329551346320763, -15.655960942182485 ], [ -47.329300582020785, -15.656459591933482 ], [ -47.328146547610444, -15.656320989997887 ], [ -47.329057282158772, -15.657205702160876 ], [ -47.328130680924559, -15.657884092608619 ], [ -47.328611596256287, -15.658112064374995 ], [ -47.329624403057856, -15.657964874358347 ], [ -47.329465823330345, -15.658534817918373 ], [ -47.328624429078616, -15.658421803570196 ], [ -47.328004583838755, -15.659099643010334 ], [ -47.328183563552003, -15.660659771086502 ], [ -47.326702127581136, -15.661518512671678 ], [ -47.327082445841555, -15.66354980562229 ], [ -47.328523085015206, -15.663879597441943 ], [ -47.328310815172337, -15.66432001844662 ], [ -47.32752881822293, -15.664349112626864 ], [ -47.327441988617444, -15.66491558255855 ], [ -47.327812868954744, -15.665470863112175 ], [ -47.326971683809099, -15.665214197721804 ], [ -47.32658241884981, -15.665505626662624 ], [ -47.326662538697832, -15.666075743429527 ], [ -47.32747181030598, -15.665819600236951 ], [ -47.328298783919934, -15.666467597552417 ], [ -47.328460555664492, -15.667001609785775 ], [ -47.326612522875124, -15.668246313847474 ], [ -47.326143986610973, -15.669360706938495 ], [ -47.326294487094081, -15.669887614366703 ], [ -47.327639825309305, -15.671184185104233 ], [ -47.32685337710533, -15.671810494966136 ], [ -47.327635812787349, -15.672804978860608 ], [ -47.326731855158933, -15.677462739780671 ], [ -47.327597462351711, -15.67690785881711 ], [ -47.328065805939325, -15.676022936310364 ], [ -47.328218641900655, -15.677083741137956 ], [ -47.327928940617156, -15.677686700656972 ], [ -47.328731552721372, -15.677168623856595 ], [ -47.32889462045091, -15.677486702403444 ], [ -47.32847242685056, -15.678576213934619 ], [ -47.327827212791384, -15.678830620718841 ], [ -47.328644624154826, -15.679041453812317 ], [ -47.328898415420547, -15.68012286543939 ], [ -47.32969112609419, -15.680046665730398 ], [ -47.330220083812051, -15.680640905693553 ], [ -47.331065592285761, -15.680286786848434 ], [ -47.331798301246749, -15.680839099828058 ], [ -47.331356494635344, -15.682417580057226 ], [ -47.331427468413949, -15.683411496275559 ], [ -47.331031717335421, -15.683872849243098 ], [ -47.329974893314862, -15.684178629829892 ], [ -47.329439381417146, -15.68399371200444 ], [ -47.329059219903826, -15.6845145220689 ], [ -47.328678900111619, -15.684281875410793 ], [ -47.32879532732246, -15.683447674170646 ], [ -47.328054664057774, -15.683591979442614 ], [ -47.327853341846875, -15.68442346991371 ], [ -47.328436156701507, -15.685818481249211 ], [ -47.328044227164661, -15.686206611026094 ], [ -47.328201144437685, -15.68663948878284 ], [ -47.327746443285221, -15.687413148961969 ], [ -47.329445412693644, -15.688139476003212 ], [ -47.32793618508579, -15.688848481854963 ], [ -47.326189877440783, -15.689129067102419 ], [ -47.325540185853477, -15.688744795164347 ], [ -47.3240292929422, -15.688979493308553 ], [ -47.323670540009537, -15.688675237291083 ], [ -47.32274640217701, -15.688925370957993 ], [ -47.32267845276575, -15.688607181718382 ], [ -47.321707128064823, -15.689220089420687 ], [ -47.321516849250358, -15.688722512099723 ], [ -47.321779285601082, -15.687685295581344 ], [ -47.321543891196079, -15.687238790167017 ], [ -47.321228120891092, -15.687188839972046 ], [ -47.320886487438386, -15.687820352673608 ], [ -47.320342663021272, -15.687560517179964 ], [ -47.320038947315538, -15.688246734814294 ], [ -47.319377324984572, -15.687465962364039 ], [ -47.319511824888473, -15.688227031626058 ], [ -47.319067565683291, -15.688277820939184 ], [ -47.319090890554442, -15.68869134567621 ], [ -47.319580346671835, -15.689008678046857 ], [ -47.31853835655194, -15.689393753943746 ], [ -47.318399062981527, -15.690106233408743 ], [ -47.317753402054777, -15.690738256194839 ], [ -47.318167000356489, -15.69259494238861 ], [ -47.316569990211676, -15.692392340563964 ], [ -47.317263235885797, -15.693329984153243 ], [ -47.315810240647103, -15.694732157196803 ], [ -47.315942495888947, -15.695212285731559 ], [ -47.315337679375673, -15.695251218645081 ], [ -47.314711287985091, -15.694618222717146 ], [ -47.313480763850897, -15.695324187956956 ], [ -47.313735782690088, -15.696187882961334 ], [ -47.312833485784715, -15.696394384092622 ], [ -47.312847128062614, -15.698265255098166 ], [ -47.313651608976329, -15.698646117741006 ], [ -47.313132639154787, -15.699929973868992 ], [ -47.313551664125853, -15.700615762099648 ], [ -47.314086513783352, -15.700656171982056 ], [ -47.313851887640745, -15.701600036059125 ], [ -47.31416055492096, -15.703249147802998 ], [ -47.313525228245069, -15.703809684418728 ], [ -47.314137490013479, -15.704179930271234 ], [ -47.313966924243644, -15.704850279288944 ], [ -47.314558876345039, -15.705073479205266 ], [ -47.313841190637717, -15.705526477304467 ], [ -47.313481757043007, -15.706237673914076 ], [ -47.313699814714113, -15.706469353623083 ], [ -47.31441341045582, -15.706314532411856 ], [ -47.313982536977733, -15.706893683248815 ], [ -47.31323913917516, -15.707052431864998 ], [ -47.313909403363162, -15.70801562037124 ], [ -47.31398956823157, -15.709498209135454 ], [ -47.314847474103601, -15.709320173426647 ], [ -47.315424331110741, -15.710104560962499 ], [ -47.315162893610129, -15.710656620590857 ], [ -47.313979195609882, -15.710561661310255 ], [ -47.313897860769323, -15.711246423214599 ], [ -47.31512221345325, -15.712256129952387 ], [ -47.315171976246098, -15.713028037710666 ], [ -47.315882606768056, -15.713186731907614 ], [ -47.31544790169103, -15.713840007707757 ], [ -47.31562095963298, -15.716029901410089 ], [ -47.316152578160917, -15.71644074188567 ], [ -47.317262073769484, -15.716486785087294 ], [ -47.316580168410219, -15.717219480379317 ], [ -47.316522640910215, -15.717658254640272 ], [ -47.317072833338237, -15.717814128598802 ], [ -47.318385122553138, -15.717153335348222 ], [ -47.318694534815307, -15.718202545659912 ], [ -47.319396640024017, -15.717689162794573 ], [ -47.319662834346403, -15.717886896427579 ], [ -47.319545027932172, -15.719343575394884 ], [ -47.320749062586017, -15.718842018241899 ], [ -47.320324209787096, -15.720693146364972 ], [ -47.320959599700011, -15.721699134441657 ], [ -47.320740664142576, -15.723037635269915 ], [ -47.31984861388667, -15.723252199806081 ], [ -47.319479199002814, -15.723905695174878 ], [ -47.319003002423351, -15.723861068194013 ], [ -47.318365490748739, -15.724561679013055 ], [ -47.318230082048785, -15.725370785084083 ], [ -47.318782765459858, -15.726320739824905 ], [ -47.319352566321747, -15.726558609212201 ], [ -47.318656996586213, -15.726745785568944 ], [ -47.318184397612001, -15.727513305265147 ], [ -47.318159474707436, -15.728030332184886 ], [ -47.318726891695945, -15.728304364240598 ], [ -47.31767187084494, -15.729120533932571 ], [ -47.317648910625721, -15.731045988929475 ], [ -47.31709615641973, -15.731655355249613 ], [ -47.317349680802906, -15.731803533766719 ], [ -47.3178355778902, -15.731467713793329 ], [ -47.318298629943968, -15.731750083401927 ], [ -47.318323786283912, -15.732982094638542 ], [ -47.319105604694045, -15.73225555383919 ], [ -47.319268212666699, -15.735490813273532 ], [ -47.318757951575236, -15.735323686258004 ], [ -47.317882784676677, -15.734316633136848 ], [ -47.317531502157273, -15.734761241362321 ], [ -47.31755260789182, -15.735965288810675 ], [ -47.316955110350655, -15.735590391973407 ], [ -47.316697169187179, -15.735711483207702 ], [ -47.317214496256213, -15.736913871769566 ], [ -47.316832581388937, -15.736878180196753 ], [ -47.316324857639813, -15.736276469576202 ], [ -47.315644983737705, -15.736534845650732 ], [ -47.315465123592986, -15.737291122338046 ], [ -47.314940949191573, -15.736883820245257 ], [ -47.31258474408861, -15.740102463800671 ], [ -47.313597435928628, -15.741391756059018 ], [ -47.313219343136332, -15.742106770003133 ], [ -47.31341366627742, -15.742710007278204 ], [ -47.315004009647701, -15.743112310933242 ], [ -47.314319588167862, -15.743959771931905 ], [ -47.314048072351618, -15.745025092296244 ], [ -47.314393083203491, -15.74550747392168 ], [ -47.314288280873924, -15.746384915426052 ], [ -47.314807282678608, -15.746415539166017 ], [ -47.314976173940018, -15.747160883211727 ], [ -47.314904645630079, -15.74743447877956 ], [ -47.314403935909645, -15.74745425331632 ], [ -47.314491224358619, -15.747913172376823 ], [ -47.315942170891169, -15.747699902173117 ], [ -47.316324885187157, -15.746075983032027 ], [ -47.316937122181393, -15.746596172799594 ], [ -47.317267646855989, -15.747445496131151 ], [ -47.316914212228454, -15.748031064410037 ], [ -47.317394847757939, -15.748873369152987 ], [ -47.318843511767632, -15.749691819393449 ], [ -47.31873311208814, -15.750074240623611 ], [ -47.317861301396356, -15.750438566727309 ], [ -47.31854715126078, -15.750949836408326 ], [ -47.318545666967374, -15.752134247306239 ], [ -47.319086596383883, -15.751876431592194 ], [ -47.320022447103817, -15.753208056228095 ], [ -47.320059753149955, -15.753782239392137 ], [ -47.319475690579388, -15.75426727728046 ], [ -47.319464839019517, -15.754626052970799 ], [ -47.320273702255555, -15.755370896074362 ], [ -47.322690176161927, -15.754416414447787 ], [ -47.322355485920227, -15.755501384571154 ], [ -47.321168227768538, -15.756019058349422 ], [ -47.321121602574856, -15.756759462174227 ], [ -47.321704610422252, -15.757658479968351 ], [ -47.322062553678023, -15.757961828152478 ], [ -47.322663277614808, -15.757957227641903 ], [ -47.322974767065496, -15.75852306342216 ], [ -47.323411822756114, -15.758072107803072 ], [ -47.323820850780749, -15.758191511697563 ], [ -47.32399489308763, -15.759221366100146 ], [ -47.324624908583168, -15.760150588915794 ], [ -47.324035838835314, -15.760851612221671 ], [ -47.324480982160011, -15.761438603355236 ], [ -47.3244949438037, -15.762009418336545 ], [ -47.325201840829465, -15.761742585604011 ], [ -47.325616262650527, -15.761024454214221 ], [ -47.326052756942531, -15.761097485043971 ], [ -47.325500047886692, -15.762042048356726 ], [ -47.326180550631683, -15.762488296131563 ], [ -47.32582984269068, -15.76314883317939 ], [ -47.32644992987715, -15.763286754015841 ], [ -47.327035716021264, -15.764343821732112 ], [ -47.326557340689703, -15.765262297441588 ], [ -47.327463916698129, -15.765407089415266 ], [ -47.326599997615034, -15.766139967840703 ], [ -47.326709246305953, -15.766475776894907 ], [ -47.327064752390946, -15.766563222232724 ], [ -47.327883433129038, -15.765790171021319 ], [ -47.328543340454182, -15.76606498042773 ], [ -47.328631573869274, -15.766521166951019 ], [ -47.327822300102802, -15.767055617312218 ], [ -47.328015755372917, -15.767821457033655 ], [ -47.328748565850525, -15.766881284013639 ], [ -47.329335749361753, -15.766996059003061 ], [ -47.329390227929878, -15.768172634359656 ], [ -47.329809644189282, -15.769199851849546 ], [ -47.328485216219768, -15.769637732633848 ], [ -47.328879330538363, -15.770328247226763 ], [ -47.328252275382432, -15.771380216812304 ], [ -47.328806504078102, -15.771794376188435 ], [ -47.328555255101051, -15.77225961817077 ], [ -47.328870012189896, -15.773516522000476 ], [ -47.329792698055506, -15.772372848687658 ], [ -47.330722714028568, -15.772443292321482 ], [ -47.329904973438929, -15.772891114030028 ], [ -47.329190210318046, -15.774105737869517 ], [ -47.330416726189519, -15.774078147977255 ], [ -47.330899322048147, -15.7736926374077 ], [ -47.331344488870577, -15.773950762615479 ], [ -47.331261354646863, -15.774594889073992 ], [ -47.330385818231228, -15.775129156717801 ], [ -47.331031032569484, -15.77558479523997 ], [ -47.330850244794803, -15.776990648130051 ], [ -47.331371053457772, -15.778478418560717 ], [ -47.330846344809792, -15.779832850415469 ], [ -47.331383828683869, -15.780085466248984 ], [ -47.331611294777112, -15.779498515400459 ], [ -47.332005609737344, -15.779632510172538 ], [ -47.33250043801079, -15.779989475322388 ], [ -47.333067532411185, -15.781362009367792 ], [ -47.333686965575708, -15.781030130573127 ], [ -47.33482669892684, -15.781975519074569 ], [ -47.33627504808922, -15.781518192000258 ], [ -47.336680647949649, -15.782310647194199 ], [ -47.33656759458686, -15.78302917514217 ], [ -47.335671363614949, -15.783550137727564 ], [ -47.335931046997977, -15.784065909789833 ], [ -47.335461177284756, -15.78523727024487 ], [ -47.335934975256833, -15.785467067600548 ], [ -47.33670100611468, -15.784737908577169 ], [ -47.336807091709886, -15.786097313866506 ], [ -47.337286976670129, -15.785067681428773 ], [ -47.337640891915072, -15.785013284038159 ], [ -47.337581384461153, -15.786739448866768 ], [ -47.338174700022577, -15.787546141673943 ], [ -47.338563675002185, -15.787457036349961 ], [ -47.339076260158315, -15.788382941552422 ], [ -47.338921259736459, -15.790648567568025 ], [ -47.33960205195865, -15.790377444188179 ], [ -47.340038072745678, -15.790566080136069 ], [ -47.339973591252971, -15.790882066172884 ], [ -47.338973910238458, -15.791252385849855 ], [ -47.339996629139748, -15.792481764582634 ], [ -47.339350102362395, -15.793056070360779 ], [ -47.339964431688756, -15.794390121968171 ], [ -47.339585628913078, -15.794959737957015 ], [ -47.340389344921157, -15.794910428651892 ], [ -47.340590805120392, -15.794254186732294 ], [ -47.341279852367542, -15.795431138864235 ], [ -47.341407918647214, -15.794153236172924 ], [ -47.341786299375883, -15.794521364716161 ], [ -47.341722508112291, -15.795059582645855 ], [ -47.34250830942176, -15.794994198091588 ], [ -47.342202673536441, -15.795516050751054 ], [ -47.342749780462327, -15.796519265021534 ], [ -47.342200431716101, -15.796700449812642 ], [ -47.341887040669384, -15.797684030645055 ], [ -47.342034753537959, -15.798033865843113 ], [ -47.342523769047546, -15.797230880104575 ], [ -47.343358185445751, -15.796848772894833 ], [ -47.344114495867288, -15.796004053806685 ], [ -47.344493041186233, -15.797034375565163 ], [ -47.345199301442065, -15.797272480758727 ], [ -47.345039937874432, -15.798666357761448 ], [ -47.345672331596973, -15.797837427336884 ], [ -47.34607471210505, -15.797938780067502 ], [ -47.34605065796724, -15.798523546824383 ], [ -47.34532461491051, -15.799079756714567 ], [ -47.344724222822698, -15.80009534781291 ], [ -47.345135022786145, -15.80165652465622 ], [ -47.345606326203601, -15.800612512917599 ], [ -47.346251003639459, -15.801497215563618 ], [ -47.345601296534376, -15.802929814981539 ], [ -47.346646761806262, -15.803371130008523 ], [ -47.346797101643475, -15.803947688075022 ], [ -47.34725180430906, -15.802921018369648 ], [ -47.347624389090036, -15.802784189385076 ], [ -47.347972864062591, -15.803954853869847 ], [ -47.348883424698613, -15.80345897434953 ], [ -47.349618477269551, -15.80400661841481 ], [ -47.349529670827344, -15.805447611018325 ], [ -47.348189651309021, -15.805842441117132 ], [ -47.348320676791985, -15.806119274257558 ], [ -47.349385422348384, -15.80620803454816 ], [ -47.348568366834549, -15.806883589157572 ], [ -47.348631817828405, -15.808177486677486 ], [ -47.348966836602905, -15.808423203268299 ], [ -47.349472801622412, -15.807796184430003 ], [ -47.350258787361973, -15.807823813850982 ], [ -47.350074198728919, -15.810100591995289 ], [ -47.350663431719333, -15.810623608660423 ], [ -47.351184931278205, -15.81061434826063 ], [ -47.350876894398269, -15.811896908175463 ], [ -47.351218303025213, -15.812210306240697 ], [ -47.352197970687996, -15.811959386788152 ], [ -47.352717326119055, -15.81265209104742 ], [ -47.352554651371285, -15.813351282801429 ], [ -47.353110629101984, -15.814063464259625 ], [ -47.352842118632523, -15.814406054950247 ], [ -47.35228427508811, -15.814420233280165 ], [ -47.35230927938639, -15.814645813203262 ], [ -47.353121243963173, -15.814981208698189 ], [ -47.354455935439447, -15.814122050023249 ], [ -47.354649578312909, -15.815534681036102 ], [ -47.355149490967058, -15.815997219624286 ], [ -47.354502990176769, -15.81657518691409 ], [ -47.353177497910103, -15.816940084672671 ], [ -47.353151587623685, -15.818249400254457 ], [ -47.353508080970059, -15.818413566832078 ], [ -47.354157057652053, -15.818048779435635 ], [ -47.355085641383468, -15.817010628935668 ], [ -47.3562176549136, -15.818873806079921 ], [ -47.35494303160565, -15.820328573357658 ], [ -47.355963003156759, -15.820331954406655 ], [ -47.356751574350611, -15.819532008978744 ], [ -47.357002335718938, -15.819671119872423 ], [ -47.356245286335685, -15.820614364592842 ], [ -47.354630195447342, -15.821436832059538 ], [ -47.355449980921549, -15.823250098226495 ], [ -47.356024438844322, -15.823459772659504 ], [ -47.35729829197372, -15.822179364328909 ], [ -47.35812126481693, -15.822012325182619 ], [ -47.358217626030523, -15.822596681759942 ], [ -47.357968564004032, -15.822926419897602 ], [ -47.357243066369591, -15.822889134648932 ], [ -47.357133387209878, -15.823650992311128 ], [ -47.357411640394922, -15.824068049646359 ], [ -47.358769444547448, -15.82383105266101 ], [ -47.359547951403322, -15.823209176899535 ], [ -47.359461503010841, -15.822916511573247 ], [ -47.358826049797592, -15.822999307799028 ], [ -47.359031111116671, -15.822576996285749 ], [ -47.360010246215658, -15.821553633630749 ], [ -47.360695804726625, -15.82136639939926 ], [ -47.361061263807841, -15.821980347769612 ], [ -47.360453872646154, -15.823595913980467 ], [ -47.361880475367009, -15.824542506810522 ], [ -47.362813732789149, -15.824630813938736 ], [ -47.363034872424947, -15.825030418403294 ], [ -47.362823170756251, -15.826004780862775 ], [ -47.362216236008116, -15.826775667993166 ], [ -47.36239183661214, -15.827271529016212 ], [ -47.363988187196831, -15.827806111295287 ], [ -47.366308604768598, -15.82729116405508 ], [ -47.367416690960262, -15.828367663907112 ], [ -47.367322309675849, -15.828997459419726 ], [ -47.366715415923451, -15.829450360805449 ], [ -47.366782966131318, -15.830042252211449 ], [ -47.365980532639981, -15.830211812564153 ], [ -47.366115186554332, -15.83159796236777 ], [ -47.366601811291375, -15.831795011813671 ], [ -47.365990708108569, -15.832929120697806 ], [ -47.366536159884113, -15.833369446217741 ], [ -47.365018594112122, -15.833915395926628 ], [ -47.366340972998408, -15.834558639004003 ], [ -47.366165670013146, -15.835131498757612 ], [ -47.365423030289442, -15.83506823618611 ], [ -47.366297378908925, -15.83730544121809 ], [ -47.367204257806826, -15.835445382700435 ], [ -47.367648407051448, -15.835360130947835 ], [ -47.368177949786983, -15.835715704853349 ], [ -47.367899308096753, -15.837350281077047 ], [ -47.366965944392732, -15.837337890746815 ], [ -47.366958439353439, -15.838295572101009 ], [ -47.367387148356428, -15.838806728545828 ], [ -47.367771510017477, -15.838075297174978 ], [ -47.368103104777148, -15.838021085341664 ], [ -47.367861581913914, -15.83931738609593 ], [ -47.3681122097924, -15.840082532813391 ], [ -47.370354732636606, -15.841199005233484 ], [ -47.370117888676958, -15.841695752048377 ], [ -47.368763020464364, -15.841552471965953 ], [ -47.368341407036525, -15.842513732665116 ], [ -47.369419635801613, -15.844638515629565 ], [ -47.370857906777509, -15.845768284732412 ], [ -47.370390895686043, -15.846215155138973 ], [ -47.369799552536435, -15.845844909218938 ], [ -47.369278112912291, -15.846106272333216 ], [ -47.368951331827212, -15.846574190375609 ], [ -47.368944333860696, -15.847334020654735 ], [ -47.369385184807975, -15.84760383224013 ], [ -47.370764311229451, -15.847263521667115 ], [ -47.371326815549992, -15.848200507707082 ], [ -47.371211058098581, -15.848676959365276 ], [ -47.370700303543664, -15.848894846798776 ], [ -47.368799297234958, -15.848820787976587 ], [ -47.369401597595875, -15.849889238583081 ], [ -47.368149840396441, -15.851708814075321 ], [ -47.368080860595214, -15.852915599792604 ], [ -47.368601866151415, -15.853894601947809 ], [ -47.37085439645162, -15.85481490237831 ], [ -47.370284027147662, -15.855283682711052 ], [ -47.369740235349035, -15.855311316083929 ], [ -47.369811569346524, -15.85622476991232 ], [ -47.369495186824807, -15.856944622643223 ], [ -47.369471988421701, -15.857595320001566 ], [ -47.37018900154078, -15.859452074599909 ], [ -47.370684870721533, -15.859874852832613 ], [ -47.369956757444136, -15.86090275621773 ], [ -47.370023653680782, -15.861435928557189 ], [ -47.371406191339503, -15.862177829854136 ], [ -47.371474751708419, -15.862852816016058 ], [ -47.37186120541412, -15.862937112650991 ], [ -47.372398982178495, -15.862393702120348 ], [ -47.374477154639187, -15.864355661713832 ], [ -47.374172076006801, -15.865083527733669 ], [ -47.373588960722032, -15.865341970346975 ], [ -47.372060061198383, -15.865335245039073 ], [ -47.371221458730588, -15.864897255647561 ], [ -47.370867920737687, -15.864994179090502 ], [ -47.371579680385231, -15.86687627559744 ], [ -47.371470942081103, -15.8682723041315 ], [ -47.373403031547895, -15.869391199141722 ], [ -47.372627844452687, -15.870624698054472 ], [ -47.371594104746549, -15.870741729043791 ], [ -47.372085493024976, -15.872533187445923 ], [ -47.373820814127981, -15.8729459719089 ], [ -47.372274096844585, -15.873734434565533 ], [ -47.372194311935267, -15.874094859109508 ], [ -47.373710610005141, -15.875968116785845 ], [ -47.373648476748173, -15.877117910369739 ], [ -47.374880481007807, -15.877668099979436 ], [ -47.37491764668269, -15.87860902260709 ], [ -47.375691582556499, -15.878780296278267 ], [ -47.375478592188095, -15.879561356945773 ], [ -47.376814467552691, -15.881404945871422 ], [ -47.377285973168355, -15.881575019739522 ], [ -47.378200509351274, -15.880602854854141 ], [ -47.378898486734762, -15.881061324865728 ], [ -47.379876502223674, -15.880567250921185 ], [ -47.380782916624163, -15.881208613589711 ], [ -47.380517453811699, -15.881732789595395 ], [ -47.377889075374959, -15.882220633271192 ], [ -47.377194718087637, -15.883025055602353 ], [ -47.377255253845085, -15.883411039670232 ], [ -47.378875722875051, -15.884208973089979 ], [ -47.378311798106523, -15.88554857684646 ], [ -47.379094977766975, -15.886821862886721 ], [ -47.378642157304007, -15.888084359783978 ], [ -47.37815338998319, -15.888115033149786 ], [ -47.377903095881564, -15.887309256233666 ], [ -47.377344670950727, -15.887767092375391 ], [ -47.377444744896259, -15.88992960306822 ], [ -47.378148883669709, -15.891465743433209 ], [ -47.376526722017907, -15.891244191032813 ], [ -47.376252944112331, -15.891618493954832 ], [ -47.376373398430161, -15.892257671064151 ], [ -47.376011799650151, -15.892546213808821 ], [ -47.376644666377274, -15.893577245552615 ], [ -47.376422548991336, -15.894217480136515 ], [ -47.375739713082204, -15.894734498839616 ], [ -47.375722105205526, -15.895143024337409 ], [ -47.376064840563338, -15.895632505166228 ], [ -47.377169319900553, -15.895964545253941 ], [ -47.377388535953045, -15.896348782269513 ], [ -47.376172168541558, -15.896981886748753 ], [ -47.374787034310735, -15.896976727053381 ], [ -47.374908902734163, -15.897517032794461 ], [ -47.375812345200238, -15.8982171615762 ], [ -47.375607428249261, -15.899766013862919 ], [ -47.374448018545628, -15.899368623963111 ], [ -47.373180219027773, -15.899439470639257 ], [ -47.372479857640045, -15.899817553981558 ], [ -47.374116634367375, -15.905254224112749 ], [ -47.374939586812907, -15.906728535441614 ], [ -47.374648392900326, -15.90689344425761 ], [ -47.373017036855096, -15.906376574671473 ], [ -47.372275045365768, -15.906470550177856 ], [ -47.370843192998258, -15.907760959570879 ], [ -47.368489051674104, -15.908261077772726 ], [ -47.367272444434704, -15.908005210912684 ], [ -47.365381362738582, -15.909465944939431 ], [ -47.36594568614629, -15.910063226762395 ], [ -47.366559659657582, -15.9101965227874 ], [ -47.366555851224525, -15.910509138095176 ], [ -47.366113953888991, -15.910481460319847 ], [ -47.366008909583577, -15.910759048892153 ], [ -47.367131676428656, -15.911529980103493 ], [ -47.367692237954792, -15.911247394095547 ], [ -47.368056401152572, -15.909978652890521 ], [ -47.368217319913853, -15.910088004303518 ], [ -47.367874115693745, -15.912189441599436 ], [ -47.366570032927484, -15.912358223683796 ], [ -47.366404298601886, -15.912794572793437 ], [ -47.36774719566337, -15.91458391585514 ], [ -47.368499939802184, -15.917156640847583 ], [ -47.369175341912388, -15.91743108395033 ], [ -47.368206436148057, -15.91776332712082 ], [ -47.368331918345788, -15.918034772923223 ], [ -47.369057393747617, -15.918120761864456 ], [ -47.368931947400206, -15.918807811039468 ], [ -47.367282222109097, -15.919918116916117 ], [ -47.367639899112071, -15.920166238111774 ], [ -47.36873004037745, -15.919980821381341 ], [ -47.369046811842296, -15.920402839439825 ], [ -47.368072882587889, -15.920307834751647 ], [ -47.366329063409765, -15.920958438208652 ], [ -47.364850873277163, -15.919578003416829 ], [ -47.364493902328967, -15.919549393876874 ], [ -47.362208614820503, -15.921560083914828 ], [ -47.3620023085575, -15.922280540447931 ], [ -47.362344558756632, -15.923684278928492 ], [ -47.361795628052064, -15.924326278176013 ], [ -47.361211022545575, -15.924472705238474 ], [ -47.361528528623282, -15.924957963720919 ], [ -47.361239150271359, -15.925600734618349 ], [ -47.361438260985139, -15.926100841830245 ], [ -47.36234214240303, -15.925712421623574 ], [ -47.362696954738482, -15.925874758806428 ], [ -47.362519111604698, -15.92679365086672 ], [ -47.361632723631686, -15.926842204950903 ], [ -47.362540815569083, -15.928010283346302 ], [ -47.362171302818396, -15.929145377757745 ], [ -47.36440539642706, -15.930011637067787 ], [ -47.364209066426199, -15.930387793810056 ], [ -47.362634351212428, -15.931295797782377 ], [ -47.36259631007875, -15.931794887666257 ], [ -47.364088381147006, -15.931164226735969 ], [ -47.364698316846777, -15.931265944786759 ], [ -47.364840842699984, -15.930441392665607 ], [ -47.365818490812693, -15.930610443041104 ], [ -47.366131536359759, -15.931350498077459 ], [ -47.365038289368968, -15.933348145297781 ], [ -47.367963405104305, -15.933104643216108 ], [ -47.36839814571632, -15.933472968105363 ], [ -47.369144504165092, -15.935332974134694 ], [ -47.372244806587645, -15.935456067095252 ], [ -47.373157659311396, -15.936067548861498 ], [ -47.373645740265282, -15.936841797223149 ], [ -47.373408033992114, -15.938064887713926 ], [ -47.372890264694036, -15.938577388929369 ], [ -47.371610816812613, -15.936486579864377 ], [ -47.370974924814895, -15.936084342203419 ], [ -47.370124277457329, -15.936316832654354 ], [ -47.371028089893265, -15.938701771969409 ], [ -47.372457287532043, -15.939710483893474 ], [ -47.372527965534083, -15.940559791739348 ], [ -47.372137299617236, -15.940845045791752 ], [ -47.370344726013663, -15.940537743844573 ], [ -47.369078160320264, -15.941133453866021 ], [ -47.369226451437399, -15.941437167817266 ], [ -47.370425360453453, -15.94167873899219 ], [ -47.370807066921493, -15.942934763869273 ], [ -47.369944423389597, -15.943102346288414 ], [ -47.370149640381207, -15.944436198769642 ], [ -47.369877650618839, -15.945366066393637 ], [ -47.368424376275371, -15.947080415655801 ], [ -47.36876138772282, -15.947313397960324 ], [ -47.370461030378991, -15.947255855929107 ], [ -47.37062737779852, -15.945917917131203 ], [ -47.371515512102256, -15.946964200653774 ], [ -47.370902461200423, -15.948507608852459 ], [ -47.3712969721159, -15.948945021723947 ], [ -47.371277639461731, -15.949444806726699 ], [ -47.370545757158361, -15.951047339697091 ], [ -47.372459461840663, -15.953704804945261 ], [ -47.37181357383264, -15.954997436993828 ], [ -47.371893448620725, -15.955754497342529 ], [ -47.372502597878189, -15.956100106201534 ], [ -47.37476736715557, -15.956370546057803 ], [ -47.375014294925563, -15.956643353629236 ], [ -47.37433020918111, -15.958417917633943 ], [ -47.373573876087576, -15.958182343915896 ], [ -47.373253533575685, -15.958415334633093 ], [ -47.372978135215732, -15.959055256740049 ], [ -47.373279014650699, -15.959944484026964 ], [ -47.374532752975917, -15.960153792958435 ], [ -47.375865204732811, -15.961257479129534 ], [ -47.378502464796128, -15.962306086835227 ], [ -47.378382979408237, -15.962704894859636 ], [ -47.377691292762556, -15.962647493953273 ], [ -47.377109639173632, -15.963288995649764 ], [ -47.376654031786089, -15.965195647237582 ], [ -47.375404162456597, -15.966415740988888 ], [ -47.376092914916661, -15.967578640702394 ], [ -47.376348593009268, -15.968828808369604 ], [ -47.379020241653265, -15.968115877282981 ], [ -47.379180388032353, -15.969012226931776 ], [ -47.378843941899468, -15.970129696835343 ], [ -47.378338074181897, -15.970622039095721 ], [ -47.377086557164013, -15.970800871657342 ], [ -47.376947441400993, -15.971297409062565 ], [ -47.377343917423026, -15.972373778968052 ], [ -47.378586285076572, -15.972863293590908 ], [ -47.37920949615151, -15.973640151113136 ], [ -47.379071457367736, -15.974227428085666 ], [ -47.378105065713321, -15.973998865248692 ], [ -47.377816994718188, -15.975602549313873 ], [ -47.379114849796338, -15.977898194294985 ], [ -47.378345594646262, -15.978475952577462 ], [ -47.37621308517793, -15.978441778418162 ], [ -47.375539749688294, -15.980643718720675 ], [ -47.374899219721328, -15.980568295259095 ], [ -47.374452445783881, -15.979566727927446 ], [ -47.373822490856206, -15.979664433363522 ], [ -47.373634047653397, -15.980318264666591 ], [ -47.373805314895073, -15.981100125847325 ], [ -47.374123263544909, -15.981302865058998 ], [ -47.37650392890221, -15.982126313668763 ], [ -47.376622582081808, -15.982785003209624 ], [ -47.375813586835498, -15.983610695270494 ], [ -47.375727090891765, -15.984230400701161 ], [ -47.377236332110463, -15.986366965415344 ], [ -47.376960282455187, -15.986823767945111 ], [ -47.376432249191154, -15.98688735609254 ], [ -47.375989638809884, -15.986240499587378 ], [ -47.375300986325598, -15.985919941215551 ], [ -47.375637861904814, -15.987794379848662 ], [ -47.374958423899201, -15.988664530891665 ], [ -47.373343088873298, -15.99273039494771 ], [ -47.373216496447476, -15.994349206898478 ], [ -47.372589626976584, -15.994731961765639 ], [ -47.370837550435652, -15.994426349163941 ], [ -47.370227569058436, -15.994700482105976 ], [ -47.370455639189167, -15.997843582863716 ], [ -47.37015312346211, -16.001522579407979 ], [ -47.36932963991179, -16.002871574557251 ], [ -47.368754801658831, -16.00303121088487 ], [ -47.3675718461472, -16.001610437877662 ], [ -47.366721725882748, -16.001066358773123 ], [ -47.365260198593873, -16.001063614201936 ], [ -47.364910509263289, -16.002615651592389 ], [ -47.365278391602885, -16.004171649218634 ], [ -47.363742365260727, -16.005493548591502 ], [ -47.361499878235954, -16.006716438886418 ], [ -47.359670954946736, -16.005527772281269 ], [ -47.35917256016365, -16.005627105399164 ], [ -47.359051072855657, -16.005993437345175 ], [ -47.360447689610453, -16.007705739329417 ], [ -47.359720691976001, -16.008231678673209 ], [ -47.358263340961656, -16.008386739042848 ], [ -47.357233587233893, -16.007921814075186 ], [ -47.355682102430904, -16.008324697925595 ], [ -47.354442394163947, -16.007118161193716 ], [ -47.351495953841457, -16.006459701119468 ], [ -47.34943424094164, -16.007180302646162 ], [ -47.349092070068984, -16.006299375609505 ], [ -47.348701121810009, -16.006092271409265 ], [ -47.347961441842244, -16.007212073010766 ], [ -47.348359951455279, -16.008757847404848 ], [ -47.347965388931122, -16.008934400385851 ], [ -47.347055178917891, -16.008623366342217 ], [ -47.346249865059995, -16.008976643100947 ], [ -47.346468756099554, -16.010391291860241 ], [ -47.345953929707434, -16.011359881363894 ], [ -47.344454847447388, -16.011916459261695 ], [ -47.343109586451327, -16.011782397715319 ], [ -47.341547747969642, -16.012511878619851 ], [ -47.339465238288476, -16.01232320632759 ], [ -47.338419750644583, -16.01360289631457 ], [ -47.338637957999218, -16.014962763362636 ], [ -47.340410563702576, -16.014951268030231 ], [ -47.341121285944915, -16.015507203389852 ], [ -47.341154513644369, -16.01627407966275 ], [ -47.339951652047048, -16.01655338615798 ], [ -47.339745138916221, -16.016892284213107 ], [ -47.339838824216933, -16.017290541349105 ], [ -47.341045740026537, -16.018052445651769 ], [ -47.341110282437967, -16.01942181331658 ], [ -47.340823194566539, -16.019792906977006 ], [ -47.339648672075597, -16.01972742922257 ], [ -47.337941824464259, -16.018438592846405 ], [ -47.337363587808383, -16.017442780597747 ], [ -47.336278656152373, -16.0174232806019 ], [ -47.336213100843466, -16.018050315092484 ], [ -47.336992768980082, -16.018965645764556 ], [ -47.336389665680962, -16.020005642908899 ], [ -47.334874753081188, -16.020601482047372 ], [ -47.333506985216971, -16.0220177568801 ], [ -47.330886801996854, -16.022241968090011 ], [ -47.330444717004134, -16.024603307762877 ], [ -47.328683100385582, -16.025569754317726 ], [ -47.328716197037608, -16.026328810956947 ], [ -47.329348084573049, -16.027065706874179 ], [ -47.329288058085297, -16.027473468637918 ], [ -47.328305649896478, -16.027922563159279 ], [ -47.326723544922146, -16.02761874262146 ], [ -47.325678158232947, -16.029618660049895 ], [ -47.325132116412668, -16.02930359054373 ], [ -47.325583887592003, -16.027772028035425 ], [ -47.325406102740232, -16.027100657255101 ], [ -47.32495647361894, -16.026721908850014 ], [ -47.322909110639841, -16.026086452938895 ], [ -47.322144653697876, -16.026149322223318 ], [ -47.32258513388166, -16.026771090374815 ], [ -47.321513429422495, -16.02859903736455 ], [ -47.32171699801836, -16.030100013653154 ], [ -47.322304209107351, -16.031174065007484 ], [ -47.322089103706361, -16.03147389870345 ], [ -47.319865973050426, -16.031043878586193 ], [ -47.319174650095171, -16.031466298358161 ], [ -47.319062596264487, -16.03298908506844 ], [ -47.318427172805947, -16.034073340897667 ], [ -47.318684370116678, -16.034377223425565 ], [ -47.320411339601151, -16.03472653359028 ], [ -47.320733767906873, -16.035643033719349 ], [ -47.318729431454869, -16.036685347798375 ], [ -47.318750590245024, -16.03768811620866 ], [ -47.318313244871462, -16.037659134679199 ], [ -47.317443951207132, -16.036414166043375 ], [ -47.31511184460421, -16.036132900816632 ], [ -47.313316404768905, -16.0350974699186 ], [ -47.310006188021994, -16.036273509167682 ], [ -47.310068852291089, -16.037065431005995 ], [ -47.311315478462426, -16.039997800740153 ], [ -47.312632272738931, -16.041674706708243 ], [ -47.312674911947141, -16.042110662947056 ], [ -47.31220292353531, -16.042761288824178 ], [ -47.311536205837733, -16.042832125645404 ], [ -47.309285313752945, -16.041683526579831 ], [ -47.30850026213848, -16.04209203412303 ], [ -47.308633049690158, -16.043008897223192 ], [ -47.309213410545183, -16.043602716430275 ], [ -47.310053540306114, -16.043893696738582 ], [ -47.310182982934847, -16.044519650370727 ], [ -47.309834136297795, -16.045250771147092 ], [ -47.308494525593723, -16.045674350284173 ], [ -47.308543128228749, -16.04662848777723 ], [ -47.309974862753755, -16.048486008354878 ], [ -47.309773491538856, -16.048960964453869 ], [ -47.308502123976162, -16.049971365856038 ], [ -47.629214380189183, -16.049807751944623 ], [ -47.997575842418605, -16.049781678992588 ], [ -48.015729975696402, -16.04995922108472 ], [ -48.015955897327984, -16.049712737372946 ], [ -48.038477805731503, -16.049662560944157 ], [ -48.277817853119451, -16.049598469181756 ], [ -48.277467870380015, -16.048871694293947 ], [ -48.277876655786109, -16.046755011932699 ], [ -48.278663311852, -16.044745722871607 ], [ -48.277719006038829, -16.044461118575381 ], [ -48.277531995783519, -16.043984540856943 ], [ -48.278590416109658, -16.041795968858654 ], [ -48.278370122034083, -16.041374128276026 ], [ -48.277554563282628, -16.041449121571642 ], [ -48.276963986916066, -16.041097587663405 ], [ -48.277193654696966, -16.039166495983753 ], [ -48.275872564431282, -16.036913780145667 ], [ -48.27538894384017, -16.03641818203198 ], [ -48.274200106709863, -16.03617861676998 ], [ -48.27348590581628, -16.035650079234479 ], [ -48.27337959999538, -16.035239826350047 ], [ -48.274110972999623, -16.034855956278957 ], [ -48.274160204770602, -16.034371836822469 ], [ -48.272995035673269, -16.03256254244117 ], [ -48.271891407866015, -16.031766616586591 ], [ -48.272970419814158, -16.030527598683289 ], [ -48.272195007692595, -16.027618778897637 ], [ -48.271415494258889, -16.027343898443075 ], [ -48.272190904990346, -16.02562896582177 ], [ -48.271370363806419, -16.025349982247089 ], [ -48.271288310036731, -16.025079202674686 ], [ -48.272428861774117, -16.024648419143329 ], [ -48.272523225063075, -16.024082244686468 ], [ -48.272355013828488, -16.02378274801362 ], [ -48.271074969196214, -16.023495558013217 ], [ -48.269905696532774, -16.022305772691414 ], [ -48.27068110863015, -16.019922098783564 ], [ -48.270028777740755, -16.018875909292021 ], [ -48.270285346244833, -16.016408937167473 ], [ -48.271666714322166, -16.015462031710644 ], [ -48.271202543617918, -16.014604247365956 ], [ -48.272245996564749, -16.013553367369042 ], [ -48.272156876690424, -16.011032000108681 ], [ -48.271343651685719, -16.009650632395314 ], [ -48.272349970631268, -16.009283009870124 ], [ -48.27243537759, -16.00892281428311 ], [ -48.271091144430962, -16.007920207556005 ], [ -48.270664108435845, -16.006616821286919 ], [ -48.269791469731004, -16.00547310770326 ], [ -48.269995704016956, -16.004039753291249 ], [ -48.268885410715981, -16.002517277319047 ], [ -48.267867952240962, -16.002049395394046 ], [ -48.267793685007902, -16.001210175607167 ], [ -48.266568278292766, -16.001492391395455 ], [ -48.266222936214824, -16.001254737149335 ], [ -48.266196942169927, -15.998662815157484 ], [ -48.265495117597737, -15.997901576922231 ], [ -48.265405997915366, -15.996869265054233 ], [ -48.264778441068998, -15.996390241728133 ], [ -48.263819509249643, -15.996293741302107 ], [ -48.262753092722271, -15.995097348025535 ], [ -48.262780264811653, -15.994227576785196 ], [ -48.263925744355276, -15.992685200162029 ], [ -48.262649640049425, -15.991765802350129 ], [ -48.261634785714385, -15.989721022354978 ], [ -48.26182569930193, -15.989389435798367 ], [ -48.26258432843813, -15.989555228616009 ], [ -48.262795337230173, -15.988992537786585 ], [ -48.261705123175119, -15.985445573089516 ], [ -48.260911325957252, -15.98495824232193 ], [ -48.259399092665596, -15.984712064579233 ], [ -48.259157940005309, -15.983928315951413 ], [ -48.258233517921411, -15.983390744909407 ], [ -48.259077555249114, -15.982315602319176 ], [ -48.25847969559279, -15.98134596495443 ], [ -48.258781137391466, -15.980336135105718 ], [ -48.25990651976133, -15.980200486050419 ], [ -48.260524475629524, -15.979281088784219 ], [ -48.260474235364697, -15.978954527069881 ], [ -48.259409140971499, -15.978527483763376 ], [ -48.257896907746122, -15.976387246729761 ], [ -48.25815313422504, -15.97620638188115 ], [ -48.25921822778092, -15.976568112392211 ], [ -48.259534741764121, -15.974000833072248 ], [ -48.25925841998064, -15.973473309984726 ], [ -48.258509839819936, -15.973624030808258 ], [ -48.258072748559513, -15.972724729979401 ], [ -48.259665367105143, -15.969760551622251 ], [ -48.260469210646576, -15.968941635450728 ], [ -48.260197913713746, -15.966987287895403 ], [ -48.257967244767549, -15.965198732932414 ], [ -48.257419624761546, -15.963711620875261 ], [ -48.25608323340434, -15.963169025027465 ], [ -48.256269122991775, -15.962721886872023 ], [ -48.2575000098958, -15.962164218570885 ], [ -48.25764068321606, -15.961450806782981 ], [ -48.257072966851645, -15.961350326769736 ], [ -48.255199004314107, -15.962129050654571 ], [ -48.255239195865563, -15.960576626335753 ], [ -48.255897344247394, -15.960154607727938 ], [ -48.255440158405563, -15.959039272980231 ], [ -48.254696601044728, -15.958582085790107 ], [ -48.25423439129893, -15.956607643071324 ], [ -48.253842515849733, -15.956527257616022 ], [ -48.252928142904111, -15.957130142438618 ], [ -48.252712109943445, -15.956838747584804 ], [ -48.253219536880458, -15.955758581213397 ], [ -48.251546765325813, -15.955264317126476 ], [ -48.25233599276298, -15.949050068787994 ], [ -48.252626020114661, -15.948443796946222 ], [ -48.253382860024757, -15.948432361187482 ], [ -48.253489819051616, -15.946773304637272 ], [ -48.253087253258116, -15.94662244265492 ], [ -48.251099730791928, -15.948106817049682 ], [ -48.250342060823634, -15.948065942382136 ], [ -48.250212335077677, -15.947398269444214 ], [ -48.251020586126415, -15.943870503937244 ], [ -48.25150778127577, -15.943905001307259 ], [ -48.252300558728095, -15.944782381983584 ], [ -48.253080858536691, -15.944216058060524 ], [ -48.252388625314204, -15.941527066807121 ], [ -48.25272531981124, -15.940276889148851 ], [ -48.251455717157938, -15.937994202430106 ], [ -48.251661140694083, -15.937028961874811 ], [ -48.252438909323637, -15.935928616231211 ], [ -48.254432873107085, -15.936861096568437 ], [ -48.254690315298788, -15.936731652206793 ], [ -48.254769045818463, -15.935579538165424 ], [ -48.25589291843383, -15.932183024405825 ], [ -48.257024345670942, -15.931935741366241 ], [ -48.2574854958985, -15.932368214062008 ], [ -48.258270127732011, -15.932073852390523 ], [ -48.258799013232426, -15.93134391315124 ], [ -48.258511127889328, -15.930337970290969 ], [ -48.258689718205972, -15.929933071004854 ], [ -48.25913481431698, -15.929371804588195 ], [ -48.260273057293375, -15.929470750671356 ], [ -48.261142323230246, -15.929107884928065 ], [ -48.261418639177244, -15.928693228893712 ], [ -48.26106129523199, -15.928062796210838 ], [ -48.261556578063363, -15.928020316849246 ], [ -48.262509540309914, -15.928505676678064 ], [ -48.264160155707131, -15.928549207572141 ], [ -48.265065908872323, -15.931486060130917 ], [ -48.268271489706422, -15.93312712344488 ], [ -48.268711939033842, -15.932999035171562 ], [ -48.268984033902349, -15.932205886716424 ], [ -48.269687835451855, -15.931723477090106 ], [ -48.271324399662589, -15.932049471013402 ], [ -48.274107082207983, -15.931142667019436 ], [ -48.275032370787159, -15.931261843348704 ], [ -48.27591839627884, -15.931800495104877 ], [ -48.276385796134427, -15.931334943770253 ], [ -48.275002745887392, -15.928823800653186 ], [ -48.274801196435931, -15.927919884782488 ], [ -48.275175387912896, -15.927236394572452 ], [ -48.277177759593499, -15.926600121236051 ], [ -48.276659472323544, -15.926198191820248 ], [ -48.27664584576597, -15.925630644599263 ], [ -48.275801636312018, -15.92580569124425 ], [ -48.275682664637266, -15.925542830768602 ], [ -48.276063873128436, -15.925110155205342 ], [ -48.275477493309303, -15.924589729758885 ], [ -48.275676087335292, -15.924322043756053 ], [ -48.27678425708816, -15.924293102419966 ], [ -48.276868659425674, -15.924053040438867 ], [ -48.27548833544779, -15.923441267103065 ], [ -48.275385265297011, -15.923046676616714 ], [ -48.276168973406179, -15.922985249252022 ], [ -48.276232817116096, -15.92271467340387 ], [ -48.275187642005214, -15.92208129570985 ], [ -48.274853841855951, -15.922185406163054 ], [ -48.274463245260677, -15.922994656233698 ], [ -48.274205016899238, -15.922850019259549 ], [ -48.274308785041789, -15.921885561881389 ], [ -48.274020935418022, -15.922368622705985 ], [ -48.273063559892769, -15.922240102323974 ], [ -48.272789058059622, -15.921793089852173 ], [ -48.272001634555814, -15.922100563012426 ], [ -48.271806963602494, -15.921191750419579 ], [ -48.272865367775822, -15.920537434191722 ], [ -48.272991945362662, -15.919991729161952 ], [ -48.271996194633466, -15.920237000437343 ], [ -48.271319950649371, -15.919911626822209 ], [ -48.270533179738919, -15.919938991834641 ], [ -48.270100855385273, -15.919193426823172 ], [ -48.270197997658009, -15.919012817760603 ], [ -48.27077633771912, -15.91937526779625 ], [ -48.270664833077326, -15.918868832558273 ], [ -48.271127147283565, -15.918711882382748 ], [ -48.270947302594926, -15.917706686680466 ], [ -48.270719628194918, -15.91746857244188 ], [ -48.269920185819394, -15.917539003742142 ], [ -48.26982645062143, -15.917236702220109 ], [ -48.269883039259618, -15.916839851907051 ], [ -48.270426044125735, -15.916881597729189 ], [ -48.270289643425031, -15.915900732732748 ], [ -48.270856169809271, -15.915800513408582 ], [ -48.269617601691571, -15.912968711691763 ], [ -48.27085978969663, -15.911711369382903 ], [ -48.270127387084081, -15.911761173408161 ], [ -48.269842998789137, -15.911075322068228 ], [ -48.270412944317819, -15.910460373232556 ], [ -48.271780307540659, -15.910929848448379 ], [ -48.272681522552681, -15.910758530052815 ], [ -48.274229258879473, -15.909849160923418 ], [ -48.274889243124122, -15.909078957702484 ], [ -48.274902469317091, -15.907821000860931 ], [ -48.275426774380662, -15.907422093215239 ], [ -48.276262383753291, -15.907123752012213 ], [ -48.277322292308554, -15.907565228591887 ], [ -48.27693455371179, -15.906625549791627 ], [ -48.274748288289992, -15.905273002146016 ], [ -48.274280402385592, -15.903495063678163 ], [ -48.274770971717658, -15.903036121142094 ], [ -48.276410472298004, -15.902989972695199 ], [ -48.275815108151754, -15.901459705785824 ], [ -48.275981821984246, -15.900792554832627 ], [ -48.276802926333552, -15.900113787027605 ], [ -48.276708716195124, -15.899832613723619 ], [ -48.275930894272975, -15.899168903842067 ], [ -48.274497655598026, -15.899909488299691 ], [ -48.273865596839443, -15.899164518819209 ], [ -48.274413137117044, -15.897593580699246 ], [ -48.275676817160722, -15.897453275055847 ], [ -48.27605768865056, -15.896891787278232 ], [ -48.275419468875725, -15.895495553819687 ], [ -48.273837380190358, -15.895233541928242 ], [ -48.273017301294594, -15.89562961927296 ], [ -48.27366684694087, -15.894245121027962 ], [ -48.275462088247906, -15.893716833427094 ], [ -48.276007976323058, -15.892890084315569 ], [ -48.276508322789937, -15.892881038400573 ], [ -48.276525998720309, -15.892677143304796 ], [ -48.275124735407068, -15.890492752142759 ], [ -48.273792812112553, -15.8902293834019 ], [ -48.274083483777176, -15.889296456709101 ], [ -48.273737223673599, -15.888397943656825 ], [ -48.273900667644575, -15.887695527844119 ], [ -48.273287468192848, -15.886107233084951 ], [ -48.272215163761082, -15.884932217594734 ], [ -48.271789943911593, -15.88366150216202 ], [ -48.272000896234999, -15.882826920641461 ], [ -48.273347763646449, -15.882184595924079 ], [ -48.274079236907383, -15.879007412444443 ], [ -48.274929934158855, -15.878965751899669 ], [ -48.274754495842686, -15.880005807235337 ], [ -48.275097318385086, -15.880743508833204 ], [ -48.275736347991618, -15.880204236835201 ], [ -48.27584639359484, -15.877711948383141 ], [ -48.275026993062916, -15.876606970785511 ], [ -48.275263000321509, -15.876197192841696 ], [ -48.277109431352464, -15.875874533253281 ], [ -48.277785941059285, -15.872354322895003 ], [ -48.278551734655942, -15.871770122142241 ], [ -48.278149362072639, -15.871401529139959 ], [ -48.277062439640595, -15.871525131857863 ], [ -48.27603650682272, -15.870443754254845 ], [ -48.275957068590536, -15.869966778388195 ], [ -48.278203345099733, -15.868493968405598 ], [ -48.279451147608349, -15.868549402817351 ], [ -48.280081797594896, -15.869047760018505 ], [ -48.280471812269099, -15.868911767161665 ], [ -48.279177124536474, -15.867343822616091 ], [ -48.279453700577591, -15.866968867774096 ], [ -48.280287604166581, -15.867062444735874 ], [ -48.280584121744269, -15.866661546434457 ], [ -48.280447676092983, -15.865703360691388 ], [ -48.279342880212418, -15.864797129398791 ], [ -48.279471364857557, -15.863984075138129 ], [ -48.279133608840056, -15.863355730102857 ], [ -48.280304791942925, -15.862721063551927 ], [ -48.278891312083978, -15.861663734244834 ], [ -48.279313953043882, -15.85992951988286 ], [ -48.280226911999286, -15.860457613956035 ], [ -48.280036132264932, -15.861393622862417 ], [ -48.280737895961259, -15.861319349300281 ], [ -48.28104799090422, -15.860113882570062 ], [ -48.281663721844154, -15.859844340291978 ], [ -48.281198016649292, -15.85922432608454 ], [ -48.281419816798206, -15.85827064072646 ], [ -48.280385051149374, -15.858128486796771 ], [ -48.280554799304007, -15.856881517837534 ], [ -48.280871851437183, -15.856826794379629 ], [ -48.281601875263341, -15.85749709202706 ], [ -48.281920303577905, -15.857061241408152 ], [ -48.281782971232658, -15.855681258140988 ], [ -48.283463066933152, -15.856059104388693 ], [ -48.283616325439105, -15.855693430807765 ], [ -48.282750033680038, -15.855234580387004 ], [ -48.282459192914089, -15.854726050303167 ], [ -48.283844153172545, -15.85428822404565 ], [ -48.28424996142509, -15.853806498044875 ], [ -48.284149742607816, -15.853137787125316 ], [ -48.282557680662883, -15.853503471881426 ], [ -48.282311271202111, -15.853021691037283 ], [ -48.28317094577087, -15.850559559895931 ], [ -48.284119211331237, -15.84963304356484 ], [ -48.284337213081457, -15.84700841096458 ], [ -48.285200321125856, -15.846447514383984 ], [ -48.284864298584388, -15.844922335788119 ], [ -48.285791067937282, -15.844205078044657 ], [ -48.285507362846175, -15.843093312688481 ], [ -48.284241461734851, -15.842727916014383 ], [ -48.283624081429494, -15.842009369096802 ], [ -48.283700396321912, -15.841396158591895 ], [ -48.285247628567056, -15.839979484334606 ], [ -48.284654211363446, -15.837817947734532 ], [ -48.285085910548631, -15.836722371930104 ], [ -48.283781373210736, -15.834504961416865 ], [ -48.282720183292085, -15.833556862963071 ], [ -48.281881283322079, -15.831615335653092 ], [ -48.281835562706348, -15.830290692711253 ], [ -48.280944459976496, -15.827789438008708 ], [ -48.281636859210579, -15.827011445090552 ], [ -48.280638503839988, -15.825763370655961 ], [ -48.280902276191583, -15.825363858163259 ], [ -48.280645383917602, -15.823715034043216 ], [ -48.279529393288122, -15.822684053120986 ], [ -48.278584164634751, -15.822278406711975 ], [ -48.277175223428202, -15.820344169964832 ], [ -48.277194142941504, -15.819767274368351 ], [ -48.276551281420389, -15.819355481611128 ], [ -48.276495183947439, -15.818250185061967 ], [ -48.275713866031985, -15.81772827077222 ], [ -48.27537752004865, -15.817069239742651 ], [ -48.274080186905465, -15.81676573331475 ], [ -48.27182596087782, -15.815469336196362 ], [ -48.271238557764356, -15.813846160771464 ], [ -48.271192612626848, -15.812820474992568 ], [ -48.270551489776771, -15.81339405958088 ], [ -48.269987153364205, -15.81345921472785 ], [ -48.269691301800272, -15.81277359271321 ], [ -48.270084588883584, -15.812037933643049 ], [ -48.269552817958306, -15.811970732038141 ], [ -48.268972997136594, -15.812703139057872 ], [ -48.268235524945666, -15.812879008118893 ], [ -48.267817743710452, -15.811826062782616 ], [ -48.268342429375508, -15.809919736803666 ], [ -48.268127594084369, -15.808759159398575 ], [ -48.267313713671989, -15.808304551408842 ], [ -48.266855786224497, -15.809338343322704 ], [ -48.266303107032776, -15.809161585565954 ], [ -48.266387077614304, -15.808466293614259 ], [ -48.266747504941478, -15.808232394016231 ], [ -48.26670753488127, -15.806763325446708 ], [ -48.266220215447206, -15.806999240072196 ], [ -48.265286894248312, -15.808769450876619 ], [ -48.264754604343267, -15.809019246164333 ], [ -48.264587269212932, -15.80758831396358 ], [ -48.264130737379261, -15.806644161159236 ], [ -48.263416168758013, -15.806783276153032 ], [ -48.262139630629513, -15.805842330282388 ], [ -48.262052294756806, -15.806509576618547 ], [ -48.261317344874335, -15.806568947845218 ], [ -48.261277838418557, -15.805622826974 ], [ -48.259625394787896, -15.804057550277497 ], [ -48.258956016555153, -15.803958784296679 ], [ -48.259402118340319, -15.803181363839418 ], [ -48.259089967924055, -15.802878473707281 ], [ -48.257587967614882, -15.8030970428859 ], [ -48.256546798871483, -15.801860997609907 ], [ -48.254925190244748, -15.80216474225022 ], [ -48.253511289074339, -15.801938232439728 ], [ -48.252298879552335, -15.802333834564411 ], [ -48.251477253682687, -15.801905270390691 ], [ -48.250506726222277, -15.802072714411036 ], [ -48.250207206622946, -15.801457478206174 ], [ -48.249183792615199, -15.800706629239395 ], [ -48.248869621028923, -15.801314092796046 ], [ -48.249441239412924, -15.802088122264443 ], [ -48.248592155079457, -15.802380376712167 ], [ -48.248175910856141, -15.800808562422127 ], [ -48.249025078761676, -15.800026340646689 ], [ -48.248915692891138, -15.798802068010497 ], [ -48.247350431661147, -15.798734367796802 ], [ -48.246716462308584, -15.799537373664048 ], [ -48.246988026952721, -15.800356374094795 ], [ -48.246221388653204, -15.800139829677436 ], [ -48.246353170436649, -15.799500253907722 ], [ -48.246075912239419, -15.799033414853087 ], [ -48.246763095561938, -15.797744280256898 ], [ -48.246607335309569, -15.797398199861483 ], [ -48.246224068818996, -15.797734736740512 ], [ -48.24610470397834, -15.797180486946012 ], [ -48.245278472635611, -15.7977155212106 ], [ -48.244976738994538, -15.797058706917127 ], [ -48.242930912584484, -15.797281117846472 ], [ -48.242492369776585, -15.799150514708248 ], [ -48.242142571449925, -15.799494694128596 ], [ -48.241519272964759, -15.799508453927954 ], [ -48.240869260894691, -15.798877918993592 ], [ -48.240603874342455, -15.798155631359545 ], [ -48.241138048842423, -15.795975863792076 ], [ -48.241269215070091, -15.793109992202824 ], [ -48.240633908914141, -15.792772270133485 ], [ -48.240565226199784, -15.793642045029959 ], [ -48.240257661454542, -15.793967792078464 ], [ -48.239236270390911, -15.793417433927058 ], [ -48.236918290248447, -15.789363490678477 ], [ -48.2369361249904, -15.788667382177366 ], [ -48.237837260010267, -15.787077536043444 ], [ -48.237724410142761, -15.786113333421508 ], [ -48.236841276906098, -15.78504203632332 ], [ -48.233328443026117, -15.784600627109242 ], [ -48.232522997055845, -15.784156858162678 ], [ -48.23245472899503, -15.782961559349097 ], [ -48.233091755872614, -15.78138786678309 ], [ -48.231893167678699, -15.77836052257345 ], [ -48.229454965220462, -15.776261847368104 ], [ -48.224524376291932, -15.77338102056572 ], [ -48.217738044474785, -15.768192823087537 ], [ -48.212563635584409, -15.760006152712673 ], [ -48.20925851579598, -15.749550729729926 ], [ -48.206711947907891, -15.721414842890979 ], [ -48.210396343609219, -15.713330602774402 ], [ -48.215489479386676, -15.710253291528495 ], [ -48.21811731986498, -15.709914262214705 ], [ -48.218808144916409, -15.708910212438848 ], [ -48.220663888414592, -15.708649419555206 ], [ -48.221354712220325, -15.709027569352186 ], [ -48.221937172289223, -15.708166951761271 ], [ -48.222316447675112, -15.708519022928529 ], [ -48.222709269941625, -15.708088713749955 ], [ -48.224095646546743, -15.709770466993328 ], [ -48.225344641001833, -15.70993717436653 ], [ -48.227500937863397, -15.709132764229944 ], [ -48.227471003756584, -15.708520042968368 ], [ -48.228589780417835, -15.709352511235391 ], [ -48.230131790178014, -15.709501233618736 ], [ -48.230531265949999, -15.709815183375932 ], [ -48.231541043832834, -15.709400798273268 ], [ -48.231444449759621, -15.709787027680076 ], [ -48.231709536137664, -15.709834644621342 ], [ -48.232648478194527, -15.709625275563011 ], [ -48.233550954860547, -15.708664010094342 ], [ -48.234580454320913, -15.709067219823098 ], [ -48.235322454984875, -15.708803863977803 ], [ -48.23615552716165, -15.708908342179143 ], [ -48.237161157896843, -15.707832758891989 ], [ -48.237577841630049, -15.708530758623594 ], [ -48.23769648686666, -15.708236925252175 ], [ -48.238802536616404, -15.70794203523519 ], [ -48.240860739146726, -15.705971155906882 ], [ -48.241422125086977, -15.704717428266813 ], [ -48.24124430839003, -15.703797563839641 ], [ -48.240404976887703, -15.70312042073437 ], [ -48.240431296320637, -15.70171994220474 ], [ -48.239961025775216, -15.701054687711522 ], [ -48.240037104344431, -15.699213189747123 ], [ -48.239602364172164, -15.698887072149093 ], [ -48.239252112696391, -15.697202755562486 ], [ -48.239797259404824, -15.695422277795792 ], [ -48.241456271581868, -15.693936747641263 ], [ -48.241349295097251, -15.693364596085942 ], [ -48.240795414654492, -15.693301604632589 ], [ -48.240664537144141, -15.692842949814128 ], [ -48.241284729004747, -15.690887294216136 ], [ -48.24132964370186, -15.686993399988255 ], [ -48.239914996022513, -15.683556148628714 ], [ -48.239562729642223, -15.682299008001303 ], [ -48.239506439776356, -15.679969028241022 ], [ -48.237855611062585, -15.676352675154384 ], [ -48.237459934639304, -15.673819713904578 ], [ -48.236485725005316, -15.671051849087849 ], [ -48.235905186697941, -15.669788211222784 ], [ -48.235427795577095, -15.669380270819953 ], [ -48.235225594449759, -15.668058190880593 ], [ -48.234610437767657, -15.66680495260157 ], [ -48.234451490361074, -15.664209054390877 ], [ -48.235113834989328, -15.662208304893639 ], [ -48.235178458345366, -15.661101412908623 ], [ -48.234151020259851, -15.657167793178374 ], [ -48.236252444570439, -15.652772424115208 ], [ -48.236455661453803, -15.651176382019781 ], [ -48.236199284168357, -15.649931291922107 ], [ -48.235419475068497, -15.648517027210772 ], [ -48.234951345413677, -15.642638727969276 ], [ -48.229603648750938, -15.637611912401203 ], [ -48.228956586576651, -15.634581748410152 ], [ -48.228303516866255, -15.633660395212043 ], [ -48.22691029910402, -15.633163197695922 ], [ -48.22660876200063, -15.631885022038368 ], [ -48.225772682739276, -15.630367067552747 ], [ -48.223804301527643, -15.628912454039316 ], [ -48.222097895434004, -15.628559384580472 ], [ -48.220964528628798, -15.62773399021745 ], [ -48.218152110285963, -15.623842756657057 ], [ -48.21721026013121, -15.622986359662526 ], [ -48.213900549993198, -15.62307440527489 ], [ -48.211177428808632, -15.622721892652843 ], [ -48.208844486406591, -15.623356942791483 ], [ -48.206565123724289, -15.623270126919321 ], [ -48.205304108560938, -15.623961230764797 ], [ -48.20350988043301, -15.624386325846215 ], [ -48.201144593710737, -15.622907100265868 ], [ -48.199729839269814, -15.622909463050398 ], [ -48.200008972308694, -15.502278250097691 ], [ -47.418406916959512, -15.501819938413869 ] ], [ [ -47.418406916553174, -15.501819583386965 ], [ -47.418406916959512, -15.501819938413869 ] ] ] } }
]
}
